[{"OBJECT_NAME":"IRIDIUM 161","OBJECT_ID":"2018-047C","EPOCH":"2026-03-09T16:18:06.514848","MEAN_MOTION":14.43273444,"ECCENTRICITY":0.00024982,"INCLINATION":86.4503,"RA_OF_ASC_NODE":130.0875,"ARG_OF_PERICENTER":89.1489,"MEAN_ANOMALY":270.9998,"EPHEMERIS_TYPE":0,"CLASSIFICATION_TYPE":"U","NORAD_CAT_ID":43478,"ELEMENT_SET_NO":999,"REV_AT_EPOCH":41078,"BSTAR":3.7950736e-5,"MEAN_MOTION_DOT":1.48e-6,"MEAN_MOTION_DDOT":0},{"OBJECT_NAME":"COSMOS 2251 DEB","OBJECT_ID":"1993-036ATW","EPOCH":"2026-02-14T01:25:55.152768","MEAN_MOTION":14.50773681,"ECCENTRICITY":0.00819848,"INCLINATION":74.0248,"RA_OF_ASC_NODE":310.8888,"ARG_OF_PERICENTER":63.4989,"MEAN_ANOMALY":357.8793,"EPHEMERIS_TYPE":0,"CLASSIFICATION_TYPE":"U","NORAD_CAT_ID":35883,"ELEMENT_SET_NO":999,"REV_AT_EPOCH":63304,"BSTAR":0.00028013865,"MEAN_MOTION_DOT":1.122e-5,"MEAN_MOTION_DDOT":0}]
